{
  "norad_id": 60123,
  "name": "STARLINK-11162 [DTC]",
  "history": [
    {
      "epoch": "2026-03-28T19:54:35.464896Z",
      "apogee_km": 361.1289142777687,
      "perigee_km": 358.4006030976416,
      "latitude_deg": 5.352352054190485e-05,
      "longitude_deg": 1.7073650362883057,
      "height_km": 360.35821076651877,
      "semi_major_axis_km": 6737.901758687705,
      "eccentricity": 0.00020246,
      "inclination_deg": 53.1587,
      "raan_deg": 126.5995,
      "arg_perigee_deg": 76.4835,
      "mean_anomaly_deg": 283.6409,
      "mean_motion_rev_day": 15.69696718
    }
  ]
}